start=new Date('2022-10-12T00:00:00.000Z').valueOf();
sats=[{"TLE_LINE1":"1 49131U 21082B   22284.82054909 -.00002732  00000-0 -22141-3 0  9995","GP_ID":"214824396","DECAY_DATE":null,"MEAN_MOTION_DOT":"-0.00002732","TIME_SYSTEM":"UTC","MEAN_MOTION_DDOT":"0.0000000000000","MEAN_ELEMENT_THEORY":"SGP4","SEMIMAJOR_AXIS":"6950.269","FILE":"3604484","APOAPSIS":"573.976","LAUNCH_DATE":"2021-09-14","PERIAPSIS":"570.292","MEAN_MOTION":"14.98305436","OBJECT_ID":"2021-082B","REV_AT_EPOCH":"6049","ECCENTRICITY":"0.00026500","SITE":"AFWTR","MEAN_ANOMALY":"77.1221","OBJECT_TYPE":"PAYLOAD","ARG_OF_PERICENTER":"282.9642","ELEMENT_SET_NO":"999","NORAD_CAT_ID":"49131","REF_FRAME":"TEME","CENTER_NAME":"EARTH","CLASSIFICATION_TYPE":"U","OBJECT_NAME":"STARLINK-3096","RA_OF_ASC_NODE":"153.2035","BSTAR":"-0.00022141000000","PERIOD":"96.109","COUNTRY_CODE":"US","EPHEMERIS_TYPE":"0","TLE_LINE2":"2 49131  70.0011 153.2035 0002650 282.9642  77.1221 14.98305436 60496","INCLINATION":"70.0011","EPOCH":"2022-10-11T19:41:35.441376","RCS_SIZE":"LARGE"},{"GP_ID":"214823144","TLE_LINE1":"1 49132U 21082C   22284.78654437 -.00004092  00000-0 -33555-3 0  9995","DECAY_DATE":null,"TIME_SYSTEM":"UTC","MEAN_MOTION_DOT":"-0.00004092","MEAN_MOTION_DDOT":"0.0000000000000","MEAN_ELEMENT_THEORY":"SGP4","SEMIMAJOR_AXIS":"6950.251","FILE":"3604484","APOAPSIS":"574.361","LAUNCH_DATE":"2021-09-14","PERIAPSIS":"569.872","MEAN_MOTION":"14.98311069","REV_AT_EPOCH":"5950","OBJECT_ID":"2021-082C","ECCENTRICITY":"0.00032290","SITE":"AFWTR","MEAN_ANOMALY":"105.8341","OBJECT_TYPE":"PAYLOAD","ARG_OF_PERICENTER":"254.2462","ELEMENT_SET_NO":"999","NORAD_CAT_ID":"49132","CENTER_NAME":"EARTH","REF_FRAME":"TEME","CLASSIFICATION_TYPE":"U","OBJECT_NAME":"STARLINK-3090","RA_OF_ASC_NODE":"193.2848","BSTAR":"-0.00033555000000","PERIOD":"96.108","COUNTRY_CODE":"US","EPHEMERIS_TYPE":"0","TLE_LINE2":"2 49132  70.0026 193.2848 0003229 254.2462 105.8341 14.98311069 59505","INCLINATION":"70.0026","EPOCH":"2022-10-11T18:52:37.433568","RCS_SIZE":"LARGE"},{"MEAN_ANOMALY":"116.7711","OBJECT_TYPE":"PAYLOAD","ARG_OF_PERICENTER":"243.3087","NORAD_CAT_ID":"49133","ELEMENT_SET_NO":"999","CLASSIFICATION_TYPE":"U","REF_FRAME":"TEME","CENTER_NAME":"EARTH","RA_OF_ASC_NODE":"193.3058","OBJECT_NAME":"STARLINK-3077","PERIOD":"96.107","BSTAR":"-0.00010918000000","COUNTRY_CODE":"US","INCLINATION":"70.0008","EPHEMERIS_TYPE":"0","TLE_LINE2":"2 49133  70.0008 193.3058 0003531 243.3087 116.7711 14.98328814 59506","EPOCH":"2022-10-11T18:45:45.120672","RCS_SIZE":"LARGE","TLE_LINE1":"1 49133U 21082D   22284.78177223 -.00001396  00000-0 -10918-3 0  9991","GP_ID":"214822895","DECAY_DATE":null,"MEAN_MOTION_DOT":"-0.00001396","TIME_SYSTEM":"UTC","MEAN_MOTION_DDOT":"0.0000000000000","MEAN_ELEMENT_THEORY":"SGP4","SEMIMAJOR_AXIS":"6950.197","FILE":"3604484","LAUNCH_DATE":"2021-09-14","APOAPSIS":"574.516","PERIAPSIS":"569.607","OBJECT_ID":"2021-082D","MEAN_MOTION":"14.98328814","REV_AT_EPOCH":"5950","SITE":"AFWTR","ECCENTRICITY":"0.00035310"},{"TLE_LINE2":"2 49134  70.0025 194.8422 0002589 270.2715  89.8148 14.98309464 60614","EPHEMERIS_TYPE":"0","INCLINATION":"70.0025","COUNTRY_CODE":"US","BSTAR":"0.00010443000000","PERIOD":"96.108","OBJECT_NAME":"STARLINK-3078","RA_OF_ASC_NODE":"194.8422","RCS_SIZE":"LARGE","EPOCH":"2022-10-11T04:13:41.584800","OBJECT_TYPE":"PAYLOAD","MEAN_ANOMALY":"89.8148","CENTER_NAME":"EARTH","REF_FRAME":"TEME","CLASSIFICATION_TYPE":"U","ELEMENT_SET_NO":"999","NORAD_CAT_ID":"49134","ARG_OF_PERICENTER":"270.2715","ECCENTRICITY":"0.00025890","SITE":"AFWTR","REV_AT_EPOCH":"6061","OBJECT_ID":"2021-082E","MEAN_MOTION":"14.98309464","LAUNCH_DATE":"2021-09-14","APOAPSIS":"573.921","PERIAPSIS":"570.322","FILE":"3603543","MEAN_MOTION_DOT":"0.00001153","TIME_SYSTEM":"UTC","DECAY_DATE":null,"GP_ID":"214783674","TLE_LINE1":"1 49134U 21082E   22284.17617575  .00001153  00000-0  10443-3 0  9996","SEMIMAJOR_AXIS":"6950.256","MEAN_ELEMENT_THEORY":"SGP4","MEAN_MOTION_DDOT":"0.0000000000000"},{"ARG_OF_PERICENTER":"260.6133","ELEMENT_SET_NO":"999","NORAD_CAT_ID":"49135","REF_FRAME":"TEME","CENTER_NAME":"EARTH","CLASSIFICATION_TYPE":"U","MEAN_ANOMALY":"99.4675","OBJECT_TYPE":"PAYLOAD","EPOCH":"2022-10-11T19:37:38.931744","RCS_SIZE":"LARGE","OBJECT_NAME":"STARLINK-3073","RA_OF_ASC_NODE":"153.2195","BSTAR":"-0.00031443000000","PERIOD":"96.108","COUNTRY_CODE":"US","EPHEMERIS_TYPE":"0","TLE_LINE2":"2 49135  70.0035 153.2195 0003104 260.6133  99.4675 14.98316260 60505","INCLINATION":"70.0035","MEAN_MOTION_DDOT":"0.0000000000000","MEAN_ELEMENT_THEORY":"SGP4","SEMIMAJOR_AXIS":"6950.235","GP_ID":"214794137","TLE_LINE1":"1 49135U 21082F   22284.81781171 -.00003841  00000-0 -31443-3 0  9993","DECAY_DATE":null,"MEAN_MOTION_DOT":"-0.00003841","TIME_SYSTEM":"UTC","FILE":"3604088","LAUNCH_DATE":"2021-09-14","PERIAPSIS":"569.943","APOAPSIS":"574.258","MEAN_MOTION":"14.98316260","OBJECT_ID":"2021-082F","REV_AT_EPOCH":"6050","ECCENTRICITY":"0.00031040","SITE":"AFWTR"},{"RCS_SIZE":"LARGE","EPOCH":"2022-10-11T16:16:36.120576","EPHEMERIS_TYPE":"0","TLE_LINE2":"2 49136  70.0010 173.5632 0002752 251.9990 108.0869 14.98316555 59992","INCLINATION":"70.0010","COUNTRY_CODE":"US","BSTAR":"-0.00008109100000","PERIOD":"96.108","OBJECT_NAME":"STARLINK-3084","RA_OF_ASC_NODE":"173.5632","CENTER_NAME":"EARTH","REF_FRAME":"TEME","CLASSIFICATION_TYPE":"U","ELEMENT_SET_NO":"999","NORAD_CAT_ID":"49136","ARG_OF_PERICENTER":"251.9990","OBJECT_TYPE":"PAYLOAD","MEAN_ANOMALY":"108.0869","ECCENTRICITY":"0.00027520","SITE":"AFWTR","OBJECT_ID":"2021-082G","MEAN_MOTION":"14.98316555","REV_AT_EPOCH":"5999","LAUNCH_DATE":"2021-09-14","APOAPSIS":"574.012","PERIAPSIS":"570.187","FILE":"3604484","SEMIMAJOR_AXIS":"6950.234","MEAN_ELEMENT_THEORY":"SGP4","MEAN_MOTION_DDOT":"0.0000000000000","TIME_SYSTEM":"UTC","MEAN_MOTION_DOT":"-0.00001060","DECAY_DATE":null,"TLE_LINE1":"1 49136U 21082G   22284.67819584 -.00001060  00000-0 -81091-4 0  9994","GP_ID":"214822645"},{"TLE_LINE2":"2 49137  70.0009 173.2486 0003012 247.3181 112.7660 14.98332457 60000","EPHEMERIS_TYPE":"0","INCLINATION":"70.0009","COUNTRY_CODE":"US","BSTAR":"0.00006395600000","PERIOD":"96.107","OBJECT_NAME":"STARLINK-3055","RA_OF_ASC_NODE":"173.2486","RCS_SIZE":"LARGE","EPOCH":"2022-10-11T19:21:58.990464","OBJECT_TYPE":"PAYLOAD","MEAN_ANOMALY":"112.7660","REF_FRAME":"TEME","CENTER_NAME":"EARTH","CLASSIFICATION_TYPE":"U","ELEMENT_SET_NO":"999","NORAD_CAT_ID":"49137","ARG_OF_PERICENTER":"247.3181","ECCENTRICITY":"0.00030120","SITE":"AFWTR","OBJECT_ID":"2021-082H","MEAN_MOTION":"14.98332457","REV_AT_EPOCH":"6000","APOAPSIS":"574.144","LAUNCH_DATE":"2021-09-14","PERIAPSIS":"569.957","FILE":"3604088","TIME_SYSTEM":"UTC","MEAN_MOTION_DOT":"0.00000670","DECAY_DATE":null,"TLE_LINE1":"1 49137U 21082H   22284.80693276  .00000670  00000-0  63956-4 0  9992","GP_ID":"214794134","SEMIMAJOR_AXIS":"6950.185","MEAN_ELEMENT_THEORY":"SGP4","MEAN_MOTION_DDOT":"0.0000000000000"},{"ARG_OF_PERICENTER":"245.2768","ELEMENT_SET_NO":"999","NORAD_CAT_ID":"49138","REF_FRAME":"TEME","CENTER_NAME":"EARTH","CLASSIFICATION_TYPE":"U","MEAN_ANOMALY":"114.8053","OBJECT_TYPE":"PAYLOAD","EPOCH":"2022-10-11T18:32:01.352832","RCS_SIZE":"LARGE","OBJECT_NAME":"STARLINK-3058","RA_OF_ASC_NODE":"193.3407","BSTAR":"-0.00025143000000","PERIOD":"96.108","COUNTRY_CODE":"US","TLE_LINE2":"2 49138  70.0032 193.3407 0003252 245.2768 114.8053 14.98317350 59504","EPHEMERIS_TYPE":"0","INCLINATION":"70.0032","MEAN_MOTION_DDOT":"0.0000000000000","MEAN_ELEMENT_THEORY":"SGP4","SEMIMAJOR_AXIS":"6950.232","GP_ID":"214794127","TLE_LINE1":"1 49138U 21082J   22284.77223788 -.00003091  00000-0 -25143-3 0  9993","DECAY_DATE":null,"TIME_SYSTEM":"UTC","MEAN_MOTION_DOT":"-0.00003091","FILE":"3604088","PERIAPSIS":"569.837","LAUNCH_DATE":"2021-09-14","APOAPSIS":"574.357","MEAN_MOTION":"14.98317350","REV_AT_EPOCH":"5950","OBJECT_ID":"2021-082J","ECCENTRICITY":"0.00032520","SITE":"AFWTR"},{"CLASSIFICATION_TYPE":"U","REF_FRAME":"TEME","CENTER_NAME":"EARTH","NORAD_CAT_ID":"49139","ELEMENT_SET_NO":"999","ARG_OF_PERICENTER":"261.0292","OBJECT_TYPE":"PAYLOAD","MEAN_ANOMALY":"99.0492","RCS_SIZE":"LARGE","EPOCH":"2022-10-11T14:35:30.513120","INCLINATION":"70.0014","TLE_LINE2":"2 49139  70.0014 153.7458 0003307 261.0292  99.0492 14.98324460 60468","EPHEMERIS_TYPE":"0","COUNTRY_CODE":"US","PERIOD":"96.107","BSTAR":"-0.00015888000000","RA_OF_ASC_NODE":"153.7458","OBJECT_NAME":"STARLINK-3057","SEMIMAJOR_AXIS":"6950.210","MEAN_ELEMENT_THEORY":"SGP4","MEAN_MOTION_DDOT":"0.0000000000000","TIME_SYSTEM":"UTC","MEAN_MOTION_DOT":"-0.00001988","DECAY_DATE":null,"TLE_LINE1":"1 49139U 21082K   22284.60799205 -.00001988  00000-0 -15888-3 0  9996","GP_ID":"214824397","SITE":"AFWTR","ECCENTRICITY":"0.00033070","OBJECT_ID":"2021-082K","MEAN_MOTION":"14.98324460","REV_AT_EPOCH":"6046","LAUNCH_DATE":"2021-09-14","PERIAPSIS":"569.777","APOAPSIS":"574.373","FILE":"3604484"},{"MEAN_ANOMALY":"103.1078","OBJECT_TYPE":"PAYLOAD","ELEMENT_SET_NO":"999","NORAD_CAT_ID":"49140","ARG_OF_PERICENTER":"256.9722","REF_FRAME":"TEME","CENTER_NAME":"EARTH","CLASSIFICATION_TYPE":"U","BSTAR":"-0.00019870000000","PERIOD":"96.108","OBJECT_NAME":"STARLINK-3118","RA_OF_ASC_NODE":"153.2642","EPHEMERIS_TYPE":"0","TLE_LINE2":"2 49140  69.9999 153.2642 0003213 256.9722 103.1078 14.98317496 60497","INCLINATION":"69.9999","COUNTRY_CODE":"US","RCS_SIZE":"LARGE","EPOCH":"2022-10-11T19:10:11.352864","DECAY_DATE":null,"GP_ID":"214823145","TLE_LINE1":"1 49140U 21082L   22284.79874251 -.00002462  00000-0 -19870-3 0  9996","TIME_SYSTEM":"UTC","MEAN_MOTION_DOT":"-0.00002462","MEAN_MOTION_DDOT":"0.0000000000000","SEMIMAJOR_AXIS":"6950.232","MEAN_ELEMENT_THEORY":"SGP4","LAUNCH_DATE":"2021-09-14","APOAPSIS":"574.330","PERIAPSIS":"569.863","FILE":"3604484","ECCENTRICITY":"0.00032130","SITE":"AFWTR","OBJECT_ID":"2021-082L","MEAN_MOTION":"14.98317496","REV_AT_EPOCH":"6049"}];
